SENTINEL-6              
1 46984U 20086A   24090.92148228 -.00000046  00000+0  64622-4 0  9992
2 46984  66.0449  13.8274 0007821 271.3219  88.6901 12.80929378156801
